UTMN 2 (RS27S)          
1 57203U 23091AP  26198.62048499  .00006430  00000+0  20584-3 0  9994
2 57203  97.5069 266.2761 0006504 340.7544  19.3451 15.32735350169202
KUZGTU 1 (RS47S)        
1 57217U 23091AV  26198.70333699  .00006017  00000+0  20644-3 0  9995
2 57217  97.5044 263.5057 0009819 357.1043   3.0139 15.30502370169043
SONATE-2                
1 59112U 24043Q   26198.67361279  .00024986  00000+0  29878-3 0  9993
2 59112  97.5566 350.9988 0006774  98.7967 261.4057 15.60966407132645
MESAT1                  
1 60209U 24125G   26198.09587536  .00046250  00000+0  44049-3 0  9990
2 60209  97.2241  56.3290 0010850 106.3695 253.8760 15.66613210114247
OOV-CUBE (TUBSAT-30)    
1 60240U 24128F   26198.72882110  .00000883  00000+0  80211-4 0  9998
2 60240  61.9940 119.0668 0040796 140.5650 219.8424 15.02879435110704
COLIBRI-S (RS67S)       
1 61746U 24199M   26198.69520007  .00012499  00000+0  23295-3 0  9992
2 61746  97.2940  72.8472 0009266 153.6661 206.5063 15.48917263142137
HORS 3 (RS81S)          
1 61753U 24199U   26198.70020564  .00023393  00000+0  32442-3 0  9994
2 61753  97.2923  75.1887 0007374 148.3133 211.8568 15.57029577142305
HORS 4 (RS82S)          
1 61754U 24199V   26198.68903904  .00033572  00000+0  37665-3 0  9992
2 61754  97.2863  76.5935 0007265 141.0319 219.1464 15.62559868142407
SIT-2086                
1 61764U 24199AF  26198.71553800  .00022429  00000+0  33339-3 0  9996
2 61764  97.2879  75.5747 0008419 136.9535 223.2379 15.55140921139179
HYPERVIEW 1G (RS66S)    
1 61772U 24199AP  26198.44982837  .00166984  00000+0  66647-3 0  9994
2 61772  97.2778  79.9100 0008311 143.3161 216.8680 15.86108599139458
ALTAIR (RS65S)          
1 61779U 24199AW  26198.70505441  .00006114  00000+0  16787-3 0  9990
2 61779  97.2985  67.8596 0012312 187.2710 172.8358 15.37539104141804
ASRTU-1 (AO-123)        
1 61781U 24199AY  26198.72093383  .00004071  00000+0  11787-3 0  9997
2 61781  97.2956  67.1186 0013277 191.3155 168.7792 15.36075218138614
SAMSAT-IONOSPHERE (RS7*)
1 61784U 24199BB  26198.67643046  .00029931  00000+0  36639-3 0  9996
2 61784  97.2886  75.3340 0009493 152.4395 207.7367 15.60285951142319
RTU MIREA 1 (RS51S)     
1 61785U 24199BC  26198.69021322  .00039889  00000+0  41412-3 0  9994
2 61785  97.2871  76.3536 0009576 147.4300 212.7552 15.64489138139230
TEVEL2-4                
1 63213U 25052D   26198.68765830  .00009609  00000+0  27972-3 0  9991
2 63213  97.3859  95.1461 0003368  46.9378 313.2147 15.35621096 74797
TEVEL2-5                
1 63214U 25052E   26197.66900195  .00011058  00000+0  32363-3 0  9995
2 63214  97.3862  94.0641 0003463  50.3372 309.8177 15.35411833 74632
TEVEL2-6                
1 63215U 25052F   26198.65959542  .00009817  00000+0  28776-3 0  9999
2 63215  97.3864  95.0416 0003363  51.0715 309.0827 15.35395037 74781
TEVEL2-1                
1 63217U 25052H   26198.50401060  .00009140  00000+0  27300-3 0  9993
2 63217  97.3833  94.4731 0004106  55.4900 304.6730 15.34820987 74748
TEVEL2-3                
1 63218U 25052J   26198.62786326  .00008807  00000+0  26261-3 0  9992
2 63218  97.3840  94.6233 0003811  57.5215 302.6396 15.34886314 74764
TEVEL2-2                
1 63219U 25052K   26198.43892551  .00009542  00000+0  28479-3 0  9990
2 63219  97.3834  94.4108 0004139  55.7304 304.4330 15.34831434 74738
OTP-2                   
1 63235U 25052AB  26198.49223767  .00003372  00000+0  14056-3 0  9992
2 63235  97.3826  90.4721 0008055  64.7620 295.4452 15.24353705 74481
TEVEL2-9                
1 63237U 25052AD  26197.67279632  .00010133  00000+0  32238-3 0  9990
2 63237  97.3899  92.9536 0007556  53.0535 307.1398 15.32762164 74544
TEVEL2-7                
1 63238U 25052AE  26198.17666353  .00008943  00000+0  28760-3 0  9998
2 63238  97.3898  93.3596 0007602  51.1945 308.9975 15.32453102 74618
TEVEL2-8                
1 63239U 25052AF  26197.66282234  .00009609  00000+0  30904-3 0  9997
2 63239  97.3904  92.8233 0007710  54.0583 306.1374 15.32429153 74532
INNOSAT 16 (RS92S7)     
1 64878U 25155C   26198.69792207  .00003006  00000+0  12043-3 0  9990
2 64878  97.4587 165.7386 0012439  80.9248 279.3398 15.25753831 85320
GEOSCAN 6 (RS92S6)      
1 64879U 25155D   26198.71548499  .00005208  00000+0  17802-3 0  9990
2 64879  97.4578 167.4011 0009881  75.1199 285.1135 15.30682657 85432
GEOSCAN 1 (RS92S1)      
1 64880U 25155E   26198.70546972  .00005781  00000+0  19341-3 0  9991
2 64880  97.4575 167.5666 0009794  75.2790 284.9536 15.31333299 85448
239ALFEROV (RS61S)      
1 64881U 25155F   26198.69485284  .00007849  00000+0  24292-3 0  9996
2 64881  97.4573 168.2242 0009526  75.3086 284.9212 15.33712809 85482
GEOSCAN 2 (RS92S2)      
1 64890U 25155Q   26198.69392120  .00005816  00000+0  19306-3 0  9994
2 64890  97.4574 167.7193 0008918  65.7123 294.5049 15.31590816 85453
GEOSCAN 5 (RS92S5)      
1 64891U 25155R   26198.67767447  .00007624  00000+0  23385-3 0  9992
2 64891  97.4566 168.3558 0008582  79.9887 280.2324 15.34016215 85499
GEOSCAN 4 (RS92S4)      
1 64892U 25155S   26198.65866534  .00008186  00000+0  24956-3 0  9997
2 64892  97.4570 168.3942 0008487  80.5242 279.6959 15.34185571 85497
GEOSCAN 3 (RS92S3)      
1 64893U 25155T   26198.68327692  .00010116  00000+0  28723-3 0  9990
2 64893  97.4558 168.9409 0008520  80.8353 279.3854 15.36362104 85539
INNOSAT 3 (RS92S0)      
1 64894U 25155U   26198.68971012  .00023535  00000+0  48396-3 0  9999
2 64894  97.4503 170.9682 0008121  84.7522 275.4654 15.45940720 85670
KNACKSAT-2              
1 67683U 98067XZ  26198.24140567  .00034112  00000+0  37883-3 0  9997
2 67683  51.6276 143.0009 0007952 335.1166  24.9444 15.62548905 24978
